
# Worst residual: 11.53 km
# MJD 60196.000000 (2023 Sep  9  0:00)
A10VwK1 = A10VgVe = 2022-134ZZZ
1 79966U 22134ZZZ 23252.49919926  .00000000  00000-0  00000-0 0 21086
2 79966 020.6291 232.2198 8055901 290.5242 155.7997 01.34385686    05

# Worst residual: 10.15 km
# MJD 60197.000000 (2023 Sep 10  0:00)
A10VwK1 = A10VgVe = 2022-134ZZZ
1 79966U 22134ZZZ 23253.49919926  .00000000  00000-0  00000-0 0 21087
2 79966 020.6337 231.9679 8055407 290.9459 279.5571 01.34387449    03

# Worst residual: 10.50 km
# MJD 60198.000000 (2023 Sep 11  0:00)
A10VwK1 = A10VgVe = 2022-134ZZZ
1 79966U 22134ZZZ 23254.49919926  .00000000  00000-0  00000-0 0 21088
2 79966 020.6319 231.7607 8055095 291.3132 043.3448 01.34400578    07

# Worst residual: 11.44 km
# MJD 60199.000000 (2023 Sep 12  0:00)
A10VwK1 = A10VgVe = 2022-134ZZZ
1 79966U 22134ZZZ 23255.49919926  .00000000  00000-0  00000-0 0 21089
2 79966 020.6336 231.5460 8054443 291.6954 167.1152 01.34388063    03

# Worst residual: 9.70 km
# MJD 60200.000000 (2023 Sep 13  0:00)
A10VwK1 = A10VgVe = 2022-134ZZZ
1 79966U 22134ZZZ 23256.49919926  .00000000  00000-0  00000-0 0 21080
2 79966 020.6359 231.3070 8054005 292.1036 290.9017 01.34395909    06

# Worst residual: 10.56 km
# MJD 60201.000000 (2023 Sep 14  0:00)
A10VwK1 = A10VgVe = 2022-134ZZZ
1 79966U 22134ZZZ 23257.49919926  .00000000  00000-0  00000-0 0 21081
2 79966 020.6348 231.1024 8053607 292.4695 054.7050 01.34404290    09

# Worst residual: 12.07 km
# MJD 60202.000000 (2023 Sep 15  0:00)
A10VwK1 = A10VgVe = 2022-134ZZZ
1 79966U 22134ZZZ 23258.49919926  .00000000  00000-0  00000-0 0 21082
2 79966 020.6363 230.8890 8052897 292.8476 178.5108 01.34392097    04

# Worst residual: 9.79 km
# MJD 60203.000000 (2023 Sep 16  0:00)
A10VwK1 = A10VgVe = 2022-134ZZZ
1 79966U 22134ZZZ 23259.49919926  .00000000  00000-0  00000-0 0 21083
2 79966 020.6358 230.6576 8052870 293.2469 302.3279 01.34404994    01

# Worst residual: 10.93 km
# MJD 60204.000000 (2023 Sep 17  0:00)
A10VwK1 = A10VgVe = 2022-134ZZZ
1 79966U 22134ZZZ 23260.49919926  .00000000  00000-0  00000-0 0 21085
2 79966 020.6359 230.4390 8052287 293.6253 066.1528 01.34408537    00

# Worst residual: 11.20 km
# MJD 60205.000000 (2023 Sep 18  0:00)
A10VwK1 = A10VgVe = 2022-134ZZZ
1 79966U 22134ZZZ 23261.49919926  .00000000  00000-0  00000-0 0 21086
2 79966 020.6377 230.2167 8051770 294.0145 189.9762 01.34398478    07

# Worst residual: 10.92 km
# MJD 60206.000000 (2023 Sep 19  0:00)
A10VwK1 = A10VgVe = 2022-134ZZZ
1 79966U 22134ZZZ 23262.49919926  .00000000  00000-0  00000-0 0 21087
2 79966 020.6393 229.9858 8051811 294.4135 313.7977 01.34408554    08

# Worst residual: 11.93 km
# MJD 60207.000000 (2023 Sep 20  0:00)
A10VwK1 = A10VgVe = 2022-134ZZZ
1 79966U 22134ZZZ 23263.49919926  .00000000  00000-0  00000-0 0 21088
2 79966 020.6407 229.7621 8051039 294.7954 077.6475 01.34412359    01

# Worst residual: 10.12 km
# MJD 60208.000000 (2023 Sep 21  0:00)
A10VwK1 = A10VgVe = 2022-134ZZZ
1 79966U 22134ZZZ 23264.49919926  .00000000  00000-0  00000-0 0 21089
2 79966 020.6440 229.5316 8050291 295.1956 201.4739 01.34405542    09

# Worst residual: 10.66 km
# MJD 60209.000000 (2023 Sep 22  0:00)
A10VwK1 = A10VgVe = 2022-134ZZZ
1 79966U 22134ZZZ 23265.49919926  .00000000  00000-0  00000-0 0 21080
2 79966 020.6437 229.3102 8049694 295.5852 325.3099 01.34412873    00

# Worst residual: 12.59 km
# MJD 60210.000000 (2023 Sep 23  0:00)
A10VwK1 = A10VgVe = 2022-134ZZZ
1 79966U 22134ZZZ 23266.49919926  .00000000  00000-0  00000-0 0 21081
2 79966 020.6438 229.0975 8049067 295.9532 089.1795 01.34415970    08

# Worst residual: 10.66 km
# MJD 60211.000000 (2023 Sep 24  0:00)
A10VwK1 = A10VgVe = 2022-134ZZZ
1 79966U 22134ZZZ 23267.49919926  .00000000  00000-0  00000-0 0 21082
2 79966 020.6464 228.8678 8048136 296.3511 213.0235 01.34409629    03

# Worst residual: 9.70 km
# MJD 60212.000000 (2023 Sep 25  0:00)
A10VwK1 = A10VgVe = 2022-134ZZZ
1 79966U 22134ZZZ 23268.49919926  .00000000  00000-0  00000-0 0 21083
2 79966 020.6461 228.6401 8047793 296.7437 336.8831 01.34419926    08

# Worst residual: 11.12 km
# MJD 60213.000000 (2023 Sep 26  0:00)
A10VwK1 = A10VgVe = 2022-134ZZZ
1 79966U 22134ZZZ 23269.49919926  .00000000  00000-0  00000-0 0 21084
2 79966 020.6482 228.4126 8047757 297.1293 100.7543 01.34418642    00

# Worst residual: 10.87 km
# MJD 60214.000000 (2023 Sep 27  0:00)
A10VwK1 = A10VgVe = 2022-134ZZZ
1 79966U 22134ZZZ 23270.49919926  .00000000  00000-0  00000-0 0 21086
2 79966 020.6562 228.1526 8046893 297.5580 224.6096 01.34407347    02

# Worst residual: 9.51 km
# MJD 60215.000000 (2023 Sep 28  0:00)
A10VwK1 = A10VgVe = 2022-134ZZZ
1 79966U 22134ZZZ 23271.49919926  .00000000  00000-0  00000-0 0 21087
2 79966 020.6599 227.9106 8046645 297.9667 348.4744 01.34423455    01

# Worst residual: 10.41 km
# MJD 60216.000000 (2023 Sep 29  0:00)
A10VwK1 = A10VgVe = 2022-134ZZZ
1 79966U 22134ZZZ 23272.49919926  .00000000  00000-0  00000-0 0 21088
2 79966 020.6650 227.6784 8045899 298.3622 112.3419 01.34421400    09

# Worst residual: 10.45 km
# MJD 60217.000000 (2023 Sep 30  0:00)
A10VwK1 = A10VgVe = 2022-134ZZZ
1 79966U 22134ZZZ 23273.49919926  .00000000  00000-0  00000-0 0 21089
2 79966 020.6703 227.4375 8044270 298.7734 236.2068 01.34411219    05

# Worst residual: 9.80 km
# MJD 60218.000000 (2023 Oct  1  0:00)
A10VwK1 = A10VgVe = 2022-134ZZZ
1 79966U 22134ZZZ 23274.49919926  .00000000  00000-0  00000-0 0 21080
2 79966 020.6681 227.2256 8043535 299.1494 000.0864 01.34426533    03
